{"schema_version":"bhumisetu.review-labels.v1","type":"FeatureCollection","name":"p6 final reviewed parcel feedback","crs":{"type":"name","properties":{"name":"urn:ogc:def:crs:OGC:1.3:CRS84"}},"generated_at":"2026-09-16T13:07:52.875302+00:00","project":{"id":"a5afb121-9200-4449-885e-c583538663e8","name":"p6 final"},"summary":{"project_parcels":255,"eligible_reviewed_labels":3,"positive_boundaries":1,"hard_negatives":2,"false_positive_classes":{"building":1,"road":1},"rejected_without_specific_label":0,"unreviewed_or_ineligible":252,"recommended_minimum":{"total":100,"positive_boundaries":40,"hard_negatives":40},"training_ready":false},"features":[{"type":"Feature","geometry":{"type":"Polygon","coordinates":[[[4.792189970260529,52.174079509777435],[4.7921755319300186,52.174065954823526],[4.792153604735703,52.17406584427489],[4.792131827388729,52.17405449934135],[4.792121043614302,52.174040962806444],[4.792121223434041,52.17402748154941],[4.792135961427732,52.174018567748256],[4.792143720016742,52.17398490145646],[4.79215851792789,52.17397149389987],[4.792220614882517,52.173974053983876],[4.792231728278859,52.17396287487131],[4.792242691850819,52.17396293013885],[4.792264469181457,52.17397427505207],[4.792264169554454,52.17399674381444],[4.792274953361737,52.174010280336425],[4.792274234268265,52.17406420536577],[4.7922557818275715,52.174077594514664],[4.792244788263641,52.17407978612453],[4.792189970260529,52.174079509777435]]]},"properties":{"parcel_id":"a96ac7a4-f749-5a31-9b53-8693857dc207","project_id":"a5afb121-9200-4449-885e-c583538663e8","review_outcome":"false_positive","training_role":"hard_negative","false_positive_class":"building","correction_type":"reject_building","reviewed_at":"2026-09-16T12:54:08.044700+00:00","parcel_version":2,"source":"ai_extracted","confidence_score":0.43543387608757866,"health_score":0.7742,"evidence":{"review_label":0.0,"segmentation":0.13045724605520567,"topology":1.0,"edge_alignment":0.1325794665608555,"deviation_from_baseline":1.0,"rl_refinement":0.1325794665608555}}},{"type":"Feature","geometry":{"type":"Polygon","coordinates":[[[4.792924085748782,52.174391051175036],[4.7928803208318715,52.17438408972253],[4.792803634968716,52.17437920948955],[4.79276358451598,52.174367772646235],[4.79275998983467,52.17436326048745],[4.792738122370631,52.17435865629471],[4.792727248519719,52.17435186044428],[4.792716284851378,52.174351805221654],[4.792701756449924,52.17434499096113],[4.792676174561215,52.1743448621012],[4.792676743463666,52.17430217145253],[4.792589034216175,52.17430172960544],[4.792556263041959,52.17429257639109],[4.792549013836879,52.17428804581311],[4.79254928337435,52.17426782392716],[4.792560306917851,52.17426338541279],[4.792556862006507,52.17424763886663],[4.7925715400913935,52.174243218763785],[4.792571659881164,52.174234231258836],[4.79252049623194,52.1742339734771],[4.792520586081963,52.17422723284843],[4.792502463107594,52.17421590639706],[4.792502612862078,52.17420467201592],[4.792524719824408,52.174191301242345],[4.792517650339643,52.17417328940492],[4.792583462031741,52.17417137395955],[4.792591100524641,52.17414669514389],[4.7925729775649675,52.174135368703205],[4.792573187195859,52.17411964056922],[4.792562283480461,52.17411509157976],[4.7925624332194365,52.17410385719831],[4.792569772238282,52.17410164714666],[4.792584689847054,52.17407925203164],[4.792610301528431,52.17407713403488],[4.792610541091132,52.17405915902428],[4.792628963473519,52.17404801669598],[4.7926367516397095,52.17401210349506],[4.792644120583362,52.17400764656237],[4.792647924828209,52.17399643059042],[4.792658888409086,52.1739964858193],[4.792658798580573,52.17400322644839],[4.792666047750654,52.17400775701984],[4.79268066586225,52.174007830655846],[4.79268243241924,52.17387526494856],[4.792700705004512,52.1738753569907],[4.792719127288327,52.17386421464783],[4.792726795592184,52.17383728894538],[4.792737908827637,52.17382610978458],[4.792749201686254,52.17380144936395],[4.792749411252966,52.173785721228576],[4.792794223316542,52.17371404205175],[4.792809440032112,52.17366917814106],[4.79283538073764,52.17364234445284],[4.792835530405766,52.17363111007003],[4.792857846510918,52.17360201109608],[4.792869199109775,52.17357285690955],[4.7929098774031,52.173537109308576],[4.792925213657226,52.17348325787474],[4.792962446831002,52.173431763717],[4.792981527239529,52.17337119004444],[4.793014986085367,52.173328664976374],[4.793045119548604,52.17326140585652],[4.793089571562019,52.17321668908111],[4.79310083415082,52.17319427550048],[4.79310862178536,52.17315836226228],[4.793127163344676,52.17313823234628],[4.793134502176605,52.17313602225889],[4.793138306222977,52.17312480626917],[4.793149389259852,52.17311587394466],[4.793153372803604,52.1730911766931],[4.79316433616279,52.17309123187465],[4.793164665244968,52.17306651622892],[4.793187070597849,52.173030676558405],[4.793194828218923,52.17299701019025],[4.793217113857211,52.17297015802125],[4.793239668682518,52.172923083955176],[4.793250751648848,52.17291415162074],[4.793254645382452,52.172896194995765],[4.793273246588316,52.172871571301705],[4.793280944295237,52.17284239868089],[4.793295831213873,52.17282225034687],[4.793299695011657,52.17280654059715],[4.793310777936931,52.17279760825681],[4.793314641727284,52.172781898506514],[4.793325724643433,52.172772966164764],[4.79333707672346,52.17274381192829],[4.793344445387269,52.17273935495048],[4.793344594923228,52.17272812056509],[4.793389105913048,52.172678909917195],[4.793408125608489,52.1726228299208],[4.793423042299182,52.172600434692626],[4.793423281524032,52.17258245967531],[4.793430650152528,52.17257800269197],[4.793434543783847,52.172560046059864],[4.793453084946479,52.172539916089995],[4.793453264355742,52.172526434826814],[4.793460662873126,52.17251973096434],[4.793464556487186,52.17250177433104],[4.793512631823451,52.17245932265012],[4.793527937076694,52.17240771800349],[4.793539019856934,52.17239878564096],[4.793539109548225,52.17239204500909],[4.793557620697449,52.1723741618993],[4.793568912732351,52.172349501392766],[4.79357628130775,52.17234504440003],[4.79358775269237,52.172306902627575],[4.7936248346514105,52.172266642634455],[4.793647657711244,52.17219934658695],[4.793662484467242,52.17218369195876],[4.793666318189234,52.172170229072414],[4.793677400882612,52.17216129669632],[4.79368123459815,52.17214783380942],[4.793688603128957,52.17214337680948],[4.793711276588088,52.172087315135336],[4.793729817428643,52.172067185119886],[4.793737156054428,52.17206497499427],[4.793741079403399,52.17204477147269],[4.793755995732608,52.172022376199685],[4.793763752745992,52.171988709787314],[4.793793406025574,52.17195740049825],[4.79379744887414,52.17192820946423],[4.793816079257591,52.17190133880184],[4.793820002556138,52.17188113527701],[4.793845851966903,52.171861041988684],[4.793864751214803,52.171813949419715],[4.793879577766074,52.171798294762866],[4.793887155372483,52.1717781096067],[4.79391668891493,52.1717557877957],[4.7939282793626266,52.17170865847491],[4.793939391764914,52.17169747919555],[4.793946939451042,52.17167954091288],[4.793965330640236,52.17167064524704],[4.793976472898168,52.17165721908645],[4.793999324985444,52.17158767608488],[4.794028977832179,52.17155636673378],[4.7940328711318765,52.17153841007824],[4.794055155534025,52.17151155774236],[4.794062822621572,52.171484631940345],[4.794092326012964,52.17146455696165],[4.794096279015412,52.17144210654807],[4.79410364738799,52.171437649521444],[4.794118802267397,52.171397279176794],[4.794118981469473,52.17138379790961],[4.794133807788061,52.17136814321927],[4.794155882988294,52.17135701900859],[4.794156092044053,52.17134129086331],[4.794178585320734,52.17129871035755],[4.7941825382647405,52.17127625994036],[4.794212071326382,52.17125393805279],[4.794223571744826,52.1712135493321],[4.794238517413207,52.171188907116054],[4.794238666717223,52.1711776727262],[4.794286919035818,52.1711217394488],[4.794302312500996,52.17106339405361],[4.794317168505115,52.171045492461054],[4.794331905073413,52.17103657837882],[4.794332054353246,52.17102534398846],[4.794346880477514,52.1710096892701],[4.794358261291728,52.17097828804675],[4.794384139788938,52.17095594775798],[4.7943918662868565,52.17092452817529],[4.794417893993597,52.17089095348815],[4.79442178707763,52.17087299681743],[4.794455033721402,52.17084619946497],[4.794455182969393,52.170834965074064],[4.794473752800522,52.17081258805782],[4.794477616006689,52.17079687826321],[4.794514158664913,52.1707970617849],[4.794514337744366,52.17078358051551],[4.794503554032819,52.17077004419092],[4.79450376296241,52.17075431604326],[4.794511131180481,52.17074985899038],[4.79451134010728,52.170734130842675],[4.794522481966012,52.170720704627726],[4.7945444373685975,52.17071856785548],[4.794551805576698,52.17071411080002],[4.794577385390238,52.17071423925025],[4.794588318324741,52.170716541176944],[4.794588258639174,52.17072103493349],[4.7945955373160585,52.17072331851012],[4.794617433033856,52.17072567548084],[4.79464654775492,52.17073480977754],[4.794668234609664,52.170752894886874],[4.794690100508177,52.170757498722416],[4.794719095919986,52.170775620514455],[4.794715143291332,52.17079807095202],[4.79501844738375,52.17079959322881],[4.7950181491717085,52.17082206201265],[4.79502542788717,52.17082434556277],[4.795028962872801,52.17083335141199],[4.7950434904893156,52.17084016538891],[4.795046965840248,52.17085366499435],[4.7950063215343475,52.170887166476575],[4.794979787277065,52.17095893822567],[4.794961336935133,52.17097232780811],[4.794942767281473,52.170994704900714],[4.794927315025753,52.17105754413792],[4.794919827492671,52.171070988729504],[4.794901406913627,52.171082131423944],[4.794882867012289,52.17110226162833],[4.7948638498260445,52.171158341881046],[4.794830483870039,52.17119412685997],[4.794815419199504,52.17122775666402],[4.794811227922184,52.171268182128266],[4.794803740318536,52.1712816267119],[4.794774267201854,52.17129945499165],[4.794763125273552,52.17131288122897],[4.794747702488156,52.17137347356057],[4.7947403341904,52.171377930627614],[4.7947402446832825,52.17138467126177],[4.7947033733292015,52.17140920346797],[4.7946958856692286,52.17142264804438],[4.794695676803302,52.1714383761906],[4.79468824881285,52.171447327010384],[4.794683997721599,52.17149224622439],[4.794643471922623,52.171516760064726],[4.7946359842264235,52.171530204636966],[4.794620411982423,52.171602031339084],[4.794598306933134,52.171615402514185],[4.794576351091477,52.171617539295475],[4.794575336387749,52.171693933144375],[4.794564373369726,52.17169387809439],[4.79454966647567,52.17170054532652],[4.794527382275964,52.17172739775523],[4.79451603123482,52.17175655211292],[4.794511929177308,52.17179023692886],[4.794504590634975,52.17179244710287],[4.794467480014984,52.17183495425539],[4.794459902661274,52.17185513944902],[4.794459484757559,52.17188659573803],[4.794448193332902,52.171911256332706],[4.794429772288485,52.17192239895123],[4.794422344163751,52.17193134975329],[4.794422194902712,52.17194258414199],[4.794396614385349,52.17194245565712],[4.794388529464254,52.172000837766916],[4.794377357389407,52.17201651084344],[4.794370018803172,52.17201872100896],[4.794369959093342,52.17202321476432],[4.794362620505631,52.17202542492937],[4.79435884671732,52.17203439408364],[4.7943440799676935,52.17204555504487],[4.794332370442701,52.17210167191497],[4.794324882553913,52.17211511646585],[4.7943064613943775,52.17212625906448],[4.794291605024264,52.17214416065182],[4.7942650390013615,52.17221817909931],[4.79422804724664,52.17225169866228],[4.794208879425259,52.172319013183944],[4.794171797948909,52.172359273361],[4.794164190505854,52.17238170541093],[4.794156792117006,52.17238840931794],[4.7941452913309295,52.172428798023375],[4.794115667851382,52.17245786052076],[4.794111834239893,52.1724713234212],[4.7940969776762845,52.172489224982684],[4.794085237852073,52.172547588700695],[4.794040727760855,52.17259679961362],[4.794025423034856,52.17264840432584],[4.7939884307422655,52.17268192381036],[4.793965578070529,52.172751466795795],[4.793928645402882,52.172780492506234],[4.793917353456665,52.17280515304552],[4.793909357384038,52.17285679448098],[4.793868770155775,52.17288580180136],[4.793845737898992,52.172968826023684],[4.79381626328279,52.17298665405664],[4.793805120642984,52.1730000801985],[4.793785653004816,52.1730898634123],[4.793738145112362,52.1730896245349],[4.793740843164133,52.173161542976736],[4.79372592644406,52.17318393824282],[4.793696481527461,52.17319951936791],[4.79368905304204,52.17320847012131],[4.793673478676869,52.17328029667443],[4.793662395703766,52.17328922904801],[4.793655086764661,52.17328919229114],[4.7936550269805895,52.17329368604508],[4.793636635059177,52.17330258165899],[4.793625492286066,52.17331600778286],[4.793625223244001,52.1733362296754],[4.793609977569109,52.173383340572244],[4.793591615497021,52.17338998930191],[4.793591525811051,52.17339672993262],[4.7935805324802105,52.17339892166751],[4.793565645496513,52.173419070035315],[4.793550369832596,52.17346842780048],[4.793513346601664,52.173504194006625],[4.793501964541294,52.17353559513292],[4.793497831648872,52.173571526778645],[4.793486688766515,52.17358495288866],[4.793464612294996,52.17359607696799],[4.793464552491195,52.17360057072156],[4.793453499298957,52.17360725619805],[4.79343846267182,52.17363863893272],[4.793426901100898,52.17368352131143],[4.793393681624401,52.173708071480114],[4.793370707866482,52.17378660184259],[4.79336327921752,52.17379555257431],[4.7933486013582005,52.17379997277629],[4.793326435018571,52.17381783745914],[4.793307205334354,52.173889645566256],[4.79326655694843,52.173923146425466],[4.793250951735916,52.173997219789065],[4.793206588848845,52.17403519598868],[4.793187658039552,52.174084535308126],[4.793172890316633,52.17409569611738],[4.79315821233965,52.17410011629526],[4.7931507835956255,52.174109067012985],[4.7931432052558955,52.174129252112614],[4.793134998610524,52.174196621617206],[4.793127569845696,52.174205572333214],[4.7931055228976,52.174214449467165],[4.793094260051481,52.174236863043916],[4.7930613691295765,52.17423669747536],[4.793057026353889,52.174288357235326],[4.7930532820331315,52.174295079467264],[4.793042258530659,52.17429951802768],[4.793027341077289,52.174321913199975],[4.793023297501532,52.17435110419439],[4.793008320170175,52.17437799311675],[4.792982558700202,52.17439134558109],[4.792924085748782,52.174391051175036]]]},"properties":{"parcel_id":"f2414db9-5480-5a23-9665-50eed03b4c2b","project_id":"a5afb121-9200-4449-885e-c583538663e8","review_outcome":"false_positive","training_role":"hard_negative","false_positive_class":"road","correction_type":"reject_road","reviewed_at":"2026-09-16T12:54:19.192091+00:00","parcel_version":2,"source":"ai_extracted","confidence_score":0.41152155513443195,"health_score":0.7646,"evidence":{"review_label":0.0,"segmentation":0.09440760077995947,"topology":1.0,"edge_alignment":0.09570604705368169,"deviation_from_baseline":0.9984472049689441,"rl_refinement":0.09570604705368169}}},{"type":"Feature","geometry":{"type":"Polygon","coordinates":[[[4.793255394319923,52.17448709403203],[4.793233526743712,52.174482489931016],[4.793226307353553,52.17447571251826],[4.793226726158573,52.17444425624903],[4.793212107902767,52.174444182680425],[4.793208393507739,52.17444865804075],[4.793153604961804,52.17444613526431],[4.79313904654362,52.17444156793395],[4.793117358522542,52.174423482553344],[4.7931100493981535,52.17442344576247],[4.793077397715561,52.17440530518738],[4.793077577248148,52.174391823929284],[4.793088720456059,52.174378397860245],[4.79308884014209,52.17436941035477],[4.793100073103755,52.17434924365548],[4.793114811008895,52.1743403297324],[4.7931223295581775,52.17432463838822],[4.7931334128973555,52.17431570606754],[4.793141110948741,52.1742865334636],[4.793167051815575,52.17425969970566],[4.793167291155185,52.174241724694134],[4.793181909344538,52.174241798268206],[4.793185922889835,52.17421485414401],[4.793204644348507,52.17418124296138],[4.793208717705023,52.17414980508313],[4.793223545265993,52.17413415051657],[4.793234568709553,52.17412971193898],[4.793234628537449,52.17412521818597],[4.793249336428367,52.174118551122085],[4.79324942616794,52.17411181049248],[4.7932605094286584,52.17410287815949],[4.793275725809682,52.17405801419114],[4.793290583227574,52.17404011273925],[4.79330529108204,52.17403344566824],[4.7933053509026395,52.174028951915076],[4.793316404221787,52.174022266453186],[4.793324251648678,52.173981859452624],[4.793335424588237,52.173966186482495],[4.793343092537985,52.17393926073996],[4.793357800351314,52.17393259366224],[4.793361604410307,52.17392137766683],[4.793372657694321,52.17391469219945],[4.7933767010007635,52.17388550119044],[4.793391857378388,52.173845130958476],[4.793402910638934,52.17383844548819],[4.793406684773452,52.17382947636777],[4.793417708123442,52.17382503777272],[4.793417797836797,52.173818297142695],[4.793428880990688,52.17380936479321],[4.793429000606188,52.17380037728639],[4.793440143559965,52.17378695118243],[4.793447960929662,52.173748791048496],[4.793459103864793,52.173735364942566],[4.793488609020162,52.173715290125294],[4.793507688837304,52.17365471636981],[4.793518771932443,52.173645784011505],[4.79352266562324,52.17362782737994],[4.7935374032051845,52.17361891340242],[4.793560077611781,52.17356285177309],[4.79358607759573,52.17353152416487],[4.793604499516564,52.17352038168257],[4.7936120775430915,52.173500196550684],[4.793612376486757,52.17347772778196],[4.793627353149778,52.173450838777796],[4.793638436170175,52.1734419064078],[4.793642299901888,52.17342619664846],[4.793660691873246,52.173417301034014],[4.79366815029078,52.17340610340582],[4.7936760271794965,52.173363449500016],[4.793687199839793,52.17334777649445],[4.793687319401631,52.17333878898659],[4.793702236193166,52.17331639372607],[4.793720628107242,52.17330749810197],[4.793728056602905,52.17329854734679],[4.79375848783879,52.17320881927247],[4.79378436793449,52.17318647912628],[4.793799523703274,52.173146108836235],[4.793810666381417,52.17313268269529],[4.793821749285864,52.17312375030753],[4.7938363969929805,52.17312157692282],[4.793854848563527,52.17310818752319],[4.793851702102139,52.17306997223989],[4.7938631435589505,52.17303407732248],[4.793881714606711,52.17301170040977],[4.793907534767924,52.17299385398989],[4.793930088877181,52.17294677979096],[4.7939375172704946,52.172937829021805],[4.7939559089813955,52.17292893336021],[4.793956058364178,52.172917698974146],[4.793967081433999,52.17291326032666],[4.793975107325729,52.17285937201042],[4.793986220004145,52.17284819272933],[4.793990083561142,52.17283248295676],[4.794015963321939,52.17281014275785],[4.794053732359558,52.1727182044554],[4.794064844982982,52.17270702516657],[4.794083176833308,52.17270262323926],[4.79409431931485,52.17268919707021],[4.794094498531091,52.1726757158061],[4.794113129049809,52.172648845100426],[4.794120915772565,52.172612931790724],[4.794135623031871,52.172606264613584],[4.794139367046851,52.17259954234487],[4.794146675873471,52.17259957907149],[4.794146735606801,52.17259508531672],[4.7941614129904515,52.17259066501384],[4.794172704747055,52.17256600444995],[4.794176777269303,52.17253456652827],[4.79419160395177,52.17251891183431],[4.794206281305905,52.17251449152578],[4.79421736397717,52.17250555909946],[4.794225747841892,52.17242470823193],[4.794236949934728,52.17240678829365],[4.794251686969861,52.17239787422425],[4.794266334417725,52.1723957007855],[4.794273732791352,52.17238899687171],[4.794274150832194,52.17235754058629],[4.794289455169404,52.17230593583859],[4.794304401169871,52.172281293619385],[4.794322762679083,52.172274644776586],[4.794326566352478,52.17226342874633],[4.794333934838112,52.17225897170608],[4.794338096787945,52.17222079314416],[4.794353072588767,52.17219390404073],[4.794364155150779,52.17218497159999],[4.794364244716818,52.17217823096708],[4.794371583329618,52.17217602080204],[4.79437167289451,52.172169280169086],[4.794390213471668,52.172149150049755],[4.794405637014933,52.1720885577741],[4.794420493320724,52.172070656172146],[4.7944205828779545,52.17206391553907],[4.794435260059606,52.172059495201374],[4.794442658351915,52.17205279127639],[4.794465450217726,52.17198774194404],[4.794480157219194,52.17198107472288],[4.794483901129441,52.1719743524424],[4.794505886999185,52.17196996880092],[4.794516939627373,52.17196328322315],[4.794517208254392,52.17194306132317],[4.794506245175235,52.17194300626771],[4.794517924591748,52.17188913625621],[4.79453652467883,52.171864512357004],[4.794536614217983,52.17185777172357],[4.794551351011546,52.17184885761549],[4.794580645516171,52.17184451066084],[4.794581749747352,52.17176137618031],[4.79460370565958,52.17175923939817],[4.7946222161190235,52.17174135611836],[4.79462631808862,52.17170767129819],[4.794633716293699,52.17170096736073],[4.794637639204022,52.17168076380749],[4.794645007562161,52.171676306747166],[4.794667440863528,52.171638219906086],[4.794682147719453,52.17163155265921],[4.794685951247044,52.17162033661585],[4.79469331959036,52.17161587955244],[4.794723628377248,52.171535138710496],[4.79474953685133,52.17151055146598],[4.794753459692115,52.17149034790807],[4.794760857841941,52.17148364396231],[4.794761007015687,52.17147240957209],[4.794779726129135,52.1714387981201],[4.794790778584446,52.171432112515724],[4.794794582067526,52.17142089646849],[4.794816806288994,52.17139853774354],[4.794817164271129,52.17137157520645],[4.79482477121166,52.17134914310975],[4.7948692791885605,52.17129993188728],[4.794888296429056,52.171243851635175],[4.794899378647281,52.171234919142194],[4.794903182086057,52.17122370309091],[4.794914234469483,52.17121701747465],[4.794918037902981,52.17120580142291],[4.7949253763282975,52.17120359122279],[4.794955773886115,52.17111610967967],[4.794985395924558,52.17108704696241],[4.795008097034487,52.17102873814729],[4.795022863280664,52.17101757710017],[4.7950266368487,52.17100860792279],[4.795033975236179,52.1710063977158],[4.795034034877342,52.17100190395915],[4.795041373263358,52.170999693751625],[4.795048890567594,52.1709840022738],[4.795056258769367,52.17097954518703],[4.795056467505361,52.170963817038725],[4.795063925160142,52.17095261931643],[4.795075544002457,52.170903242995834],[4.795101362463212,52.170885396305714],[4.795101422097375,52.170880902548916],[4.7951161286385,52.17087423524655],[4.795130745728469,52.17087430857755],[4.795138113903921,52.17086985148558],[4.795203831179122,52.1708746752053],[4.7952475334016045,52.17088612955235],[4.795251128056049,52.17089064163808],[4.795309357985978,52.17090890991184],[4.795385978559649,52.17091828226751],[4.795422223312646,52.17094093429275],[4.7954440893816415,52.170945537988665],[4.795491565204963,52.17094802305424],[4.795524364326169,52.170954928577345],[4.795546290002112,52.17095503849736],[4.795557163457564,52.17096183409124],[4.795556895309684,52.17098205599776],[4.795553092056051,52.17099327207086],[4.795530898201385,52.1710133840584],[4.795519250037568,52.17106500730203],[4.795504364711781,52.171085155925],[4.795478635690783,52.171096262067614],[4.795471058921214,52.17111644732956],[4.795452549061881,52.17113433074537],[4.795452191466282,52.171161293286126],[4.7954446146735865,52.17118147854613],[4.795411427975984,52.17120378241969],[4.7954113385707355,52.17121052305475],[4.795403970366106,52.17121498016348],[4.795392083579659,52.17128457841904],[4.7953883398644805,52.171291300729536],[4.795351528553127,52.17131133938265],[4.795343892078629,52.17133601839221],[4.79533649404086,52.17134272237484],[4.79533622578996,52.17136294427937],[4.795324905177138,52.1713898518394],[4.7952841711643766,52.17143009404851],[4.79526868942696,52.17149518020445],[4.795253833653746,52.171513081915826],[4.795235442785799,52.17152197778322],[4.795228014889541,52.17153092863696],[4.7952013911636415,52.171609441062266],[4.7951756021365615,52.17162504089342],[4.795164400618061,52.17164296092417],[4.795152453710707,52.17171705290587],[4.795119266467805,52.17173935669436],[4.795104321099888,52.17176399902006],[4.795096594955841,52.171795418645374],[4.795085452999956,52.17180884491194],[4.795070746145548,52.17181551220893],[4.795048462201429,52.171842364735895],[4.795040348330965,52.1719029937707],[4.795003536357798,52.171923032312144],[4.794999583768276,52.171945482754914],[4.794984966327575,52.17194540940722],[4.79498056636494,52.172001563017936],[4.794940010438469,52.17202832383543],[4.7949249753931875,52.172059706770476],[4.794920992924534,52.172084404087876],[4.794913594698734,52.17209110804289],[4.794909642048721,52.17211355848186],[4.79490221398817,52.17212250931393],[4.794887536831799,52.17212692970973],[4.794887477173919,52.17213142346539],[4.794876454388868,52.1721358621999],[4.794869026317935,52.17214481302985],[4.794861270110867,52.17217847951517],[4.794850098157206,52.172194152636095],[4.794846026141474,52.172225590583665],[4.794838657712412,52.172230047656],[4.79482730674537,52.17225920204126],[4.794812540038072,52.172270363060726],[4.794808646987073,52.17228831974007],[4.794797594321764,52.172295005344715],[4.7947826784232745,52.172317400749094],[4.794771625746856,52.1723240863513],[4.7947643169647085,52.17232404966342],[4.794756888839809,52.172333000485956],[4.794753055432658,52.17234646340782],[4.794745686974315,52.1723509204742],[4.794734097220354,52.17239804987114],[4.794689886385611,52.17242479225501],[4.794682368710316,52.17244048370552],[4.7946820703146935,52.172462952481865],[4.794670719185479,52.172492106850605],[4.794666647015296,52.172523544790096],[4.794625911370141,52.17256378676169],[4.794617886319124,52.172617675126155],[4.79460308959679,52.17263108299606],[4.794599285961167,52.17264229903458],[4.794562652253524,52.172648856169566],[4.794561637495779,52.17272525000472],[4.794521408985941,52.17272729502127],[4.794521349290126,52.17273178877622],[4.794510296471703,52.17273847435327],[4.794510206926268,52.172745214985646],[4.794499094404742,52.172756394316536],[4.794491188562945,52.17280129516062],[4.7944800461725725,52.17281472136697],[4.79445794047886,52.172828092512034],[4.794454136789759,52.17283930854542],[4.794446768220004,52.17284376559259],[4.7944386831964305,52.17290214769666],[4.794431314614728,52.17290660474274],[4.794427451206554,52.172922314529856],[4.794420022914024,52.172931265330014],[4.794405315589727,52.17293793254205],[4.79440525588185,52.172942426296764],[4.794386864254714,52.172951322028496],[4.794367726223914,52.17301638969044],[4.7943529890070575,52.17302530377317],[4.7943492151314056,52.17303427292541],[4.794334507762531,52.17304094012844],[4.794323245832212,52.173063353828425],[4.79431587721231,52.17306781086717],[4.794311834596668,52.17309700191356],[4.79432279795915,52.17309705698751],[4.7943186657699135,52.17313298866579],[4.794303779208522,52.17315313712824],[4.794278018834136,52.17316648987999],[4.7942705904708,52.173175440670214],[4.794262684323064,52.173220341495266],[4.794247648396385,52.173251724336204],[4.794210805088501,52.17327400950061],[4.794199483307513,52.173300916942004],[4.794195380864268,52.173334601737345],[4.794184297981948,52.173343534159976],[4.794184208385664,52.17335027479132],[4.7941621322039785,52.173361399002104],[4.794158358261259,52.17337036814761],[4.794151019441202,52.173372578298576],[4.794131970487698,52.173430905285585],[4.794120887568691,52.173439837702034],[4.794120797962577,52.17344657833319],[4.7941060904234725,52.17345324550709],[4.794087399821728,52.17348460996144],[4.794083118052361,52.173531776013775],[4.794071796128346,52.1735586834415],[4.794064427401351,52.17356314046397],[4.794064337786378,52.173569881094984],[4.794053314563662,52.173574319750834],[4.7940495405808905,52.1735832888925],[4.794038517353386,52.173587727546966],[4.794038338115449,52.17360120880883],[4.79401982664743,52.173619091989714],[4.794019707151614,52.173628079497554],[4.794012338407936,52.17363253651672],[4.794008444913794,52.173650493164764],[4.793997332040236,52.1736616724461],[4.793993587914071,52.17366839470889],[4.793975195905158,52.17367729037484],[4.793967707642378,52.17369073489884],[4.793963097079768,52.17376261659073],[4.793951894534305,52.17378053649817],[4.7939224493017285,52.173796117677576],[4.793911306490645,52.173809543827296],[4.793899625829528,52.173863413758944],[4.793892167393115,52.17387461140083],[4.793884828476872,52.17387682153498],[4.79388473883394,52.17388356216538],[4.793870001233575,52.173892476185806],[4.793862423256343,52.17391266133291],[4.793855054449859,52.17391711834193],[4.793850921805245,52.17395304999802],[4.793835915223511,52.173982185904975],[4.793821147696469,52.17399334679581],[4.793813838641814,52.17399331004867],[4.7937991009909675,52.17400222406001],[4.793780081191668,52.174058304106],[4.7937689980459215,52.174067236488106],[4.793768908384985,52.17407397711819],[4.793746801852988,52.17408734812579],[4.793731795157758,52.174116484018626],[4.7937351508078905,52.17413897116153],[4.793723888297148,52.174161384799206],[4.793723410067448,52.174197334825536],[4.793686565715272,52.17421961982097],[4.793682642146348,52.174239823332854],[4.793668023956562,52.17423974982082],[4.793663622098171,52.17429590335733],[4.793648794637439,52.17431155797896],[4.793623003502543,52.17432715746023],[4.793596494847775,52.17439668197259],[4.793574388103888,52.17441005294682],[4.7935597399607355,52.174412226297825],[4.793556025603216,52.174416701669166],[4.793526669510365,52.17442554211775],[4.793515705822625,52.174425486969355],[4.793511991459583,52.17442996233927],[4.793497343306876,52.17443213568251],[4.793489944476611,52.17443883954462],[4.793482635349309,52.17443880277683],[4.793475236515729,52.17444550663799],[4.793460558453297,52.174449926853136],[4.793376353934166,52.17446073835765],[4.793335914442016,52.17447851110188],[4.793291999817666,52.17448278418394],[4.793280976292392,52.17448722276653],[4.793255394319923,52.17448709403203]]]},"properties":{"parcel_id":"07f89fec-d404-5a24-9b15-12b9a728a77b","project_id":"a5afb121-9200-4449-885e-c583538663e8","review_outcome":"verified_boundary","training_role":"positive_boundary","false_positive_class":null,"correction_type":"boundary_adjust","reviewed_at":"2026-09-16T12:54:26.354392+00:00","parcel_version":2,"source":"field_verified","confidence_score":0.4163910492759114,"health_score":0.7665,"evidence":{"segmentation":0.101366003491421,"topology":1.0,"edge_alignment":0.10336699437660475,"deviation_from_baseline":0.9993523316062176,"rl_refinement":0.10336699437660475}}}]}