{"type": "FeatureCollection", "features": [{"type": "Feature", "properties": {"class": "parcel", "raw_confidence": 0.2981, "source_tile_id": "tile_0007"}, "geometry": {"type": "Polygon", "coordinates": [[[85.31260192610934, 23.342966652518868], [85.3126, 23.34525], [85.31264756063032, 23.34543917317649], [85.31277893245353, 23.345583360375407], [85.31296287483599, 23.345648273426427], [85.31375305721015, 23.34557349957012], [85.31356636954548, 23.345703483640587], [85.31348067849433, 23.34591551310532], [85.31352515677231, 23.346139836828876], [85.31368526569516, 23.346303129765], [85.31387004415987, 23.346353026817148], [85.31602507073774, 23.346398802367254], [85.3162117418313, 23.346335633304403], [85.31634559509043, 23.346190996750607], [85.31639414062501, 23.346], [85.31639414062501, 23.343005859375], [85.31632672846993, 23.342783631281794], [85.31618269931974, 23.342653090869263], [85.31603334748114, 23.342607785484333], [85.3154609375, 23.342605859375002], [85.31520920093227, 23.342695007801954], [85.31507959489991, 23.342885120726038], [85.31488623116775, 23.343785976069853], [85.31482399701765, 23.34334360900302], [85.31492602432432, 23.343090842599683], [85.31492850972228, 23.342933243633976], [85.31486991811569, 23.342786919900995], [85.314725451035, 23.34265402433581], [85.31453515625, 23.342605859375002], [85.313, 23.342605859375002], [85.31281144130527, 23.342653090869263], [85.31266741215508, 23.342783631281794], [85.31260192610934, 23.342966652518868]], [[85.31500156854797, 23.34497346189028], [85.31502862588493, 23.344813151240995], [85.3149865302832, 23.344498913025742], [85.31507222042391, 23.344838765305106], [85.31519627582665, 23.345014312245322], [85.31500156854797, 23.34497346189028]]]}}, {"type": "Feature", "properties": {"class": "parcel", "raw_confidence": 0.2675, "source_tile_id": "tile_0002"}, "geometry": {"type": "Polygon", "coordinates": [[[85.31759126399297, 23.339637413749198], [85.3158838861291, 23.33962308324071], [85.31560768588784, 23.339927823246196], [85.315690981706, 23.34041804614903], [85.31613551484766, 23.340574199764504], [85.31560192220661, 23.341214739039092], [85.31577153422926, 23.342197428957036], [85.31560231781604, 23.342826201736205], [85.31587012891315, 23.343250919216832], [85.316181640625, 23.3434], [85.31751503932693, 23.343325963150487], [85.31769665867844, 23.342913422572927], [85.31739224384305, 23.34254040481833], [85.31782586878353, 23.342364947510713], [85.31788668061866, 23.341736980060638], [85.31835115275217, 23.34193740081347], [85.3182465425514, 23.34239992672506], [85.31848192585743, 23.34280234466884], [85.31925370129932, 23.342753567655627], [85.31939414062501, 23.34244921875], [85.31930407836464, 23.339969795423542], [85.3189190280392, 23.33982977191657], [85.31783020641846, 23.340181729460525], [85.31759126399297, 23.339637413749198]], [[85.31681071031078, 23.34242455950431], [85.31684139681772, 23.34239527335225], [85.31688718136846, 23.34242900943501], [85.31681071031078, 23.34242455950431]]]}}, {"type": "Feature", "properties": {"class": "parcel", "raw_confidence": 0.2524, "source_tile_id": "tile_0016"}, "geometry": {"type": "Polygon", "coordinates": [[[85.32177412043958, 23.34588078327125], [85.32176604036236, 23.34619760132037], [85.3216019283884, 23.346482254385997], [85.32160741771315, 23.346949722477703], [85.32172042693125, 23.34715862875622], [85.32160212127408, 23.34741198475859], [85.32160201447553, 23.348893609543676], [85.32186364166252, 23.349282842712476], [85.32210727751887, 23.34939807389067], [85.32245808994473, 23.34935276850574], [85.32265230738429, 23.349116113870902], [85.32265427404619, 23.348568099752843], [85.32246870178247, 23.348033612605022], [85.32253470948292, 23.347481579719073], [85.32247495682607, 23.347275809897123], [85.32274014550373, 23.347312235987175], [85.32298889168135, 23.347161960438665], [85.3230796875, 23.346908203125], [85.32301524033849, 23.346601088226304], [85.32352817843316, 23.346577974824065], [85.32378608510606, 23.346400545419666], [85.32449163869774, 23.346603111973728], [85.32507217675382, 23.346550517237162], [85.32527698333749, 23.346441045837476], [85.32539221451567, 23.346197409981134], [85.32530915034492, 23.345783631281794], [85.32501576935613, 23.345607785484333], [85.32399399626887, 23.345607785484333], [85.32376367093934, 23.345710952704216], [85.323533370614, 23.3456077877634], [85.32213071501887, 23.345607785484333], [85.32177412043958, 23.34588078327125]]]}}, {"type": "Feature", "properties": {"class": "parcel", "raw_confidence": 0.2645, "source_tile_id": "tile_0008"}, "geometry": {"type": "Polygon", "coordinates": [[[85.31560768588784, 23.342927823246196], [85.31560198696043, 23.34418825734844], [85.31565976620244, 23.344357830119712], [85.31560239514523, 23.345106207887948], [85.31574279288111, 23.345368392554654], [85.31566793132588, 23.34570693206109], [85.31580201966335, 23.345955559837353], [85.31584740437648, 23.34619033298871], [85.3159779051603, 23.346333197081336], [85.31619921875, 23.3464], [85.31766992187501, 23.3464], [85.31788326655901, 23.346337792892793], [85.31901031776954, 23.34639967274112], [85.31919243634975, 23.346347388551266], [85.31933006131818, 23.34621715728838], [85.31939414062501, 23.346], [85.31939414062501, 23.343005859375], [85.31934690913074, 23.34281730068027], [85.31921636871822, 23.34267327153008], [85.31899414062501, 23.342605859375002], [85.3158838861291, 23.34262308324071], [85.31571715728752, 23.342723016662525], [85.31560768588784, 23.342927823246196]], [[85.31653548090847, 23.34411277194059], [85.31662937589616, 23.34390015999669], [85.31664705285203, 23.343898173821874], [85.3166634857939, 23.34419525471496], [85.31662419850328, 23.34420563248984], [85.31653548090847, 23.34411277194059]]]}}, {"type": "Feature", "properties": {"class": "parcel", "raw_confidence": 0.2518, "source_tile_id": "tile_0001"}, "geometry": {"type": "Polygon", "coordinates": [[[85.31293312745356, 23.341848818716297], [85.31306708977725, 23.34246188907537], [85.31282330575695, 23.34258180858362], [85.31271142102321, 23.342867995321292], [85.31279279245862, 23.343137790611394], [85.31303442662706, 23.343369551813005], [85.31391971776058, 23.343399622501565], [85.31417507378848, 23.34329246997029], [85.31440788542983, 23.343398056780156], [85.31599414062501, 23.3434], [85.31621636871822, 23.34333258784492], [85.31639414062501, 23.343], [85.31639414062501, 23.340005859375], [85.31632873317058, 23.33978666122618], [85.3160038279675, 23.339605976697964], [85.31529783064447, 23.33975112280705], [85.31511562596718, 23.34004840068609], [85.31518878886978, 23.340495619183706], [85.31494503770453, 23.340849713687884], [85.31472122499534, 23.340895890482184], [85.31415334335757, 23.340355541571764], [85.31388624802719, 23.340359518840412], [85.31361490127941, 23.340504135844895], [85.31351119797954, 23.339888160464547], [85.31335049789816, 23.3396728471508], [85.313, 23.339605859375002], [85.3127777719068, 23.33967327153008], [85.31260192610934, 23.339966652518868], [85.31260188064476, 23.34136882059497], [85.31293312745356, 23.341848818716297]], [[85.31399289827664, 23.342078528389017], [85.31388218544771, 23.3420933907623], [85.31378599938847, 23.341949283111322], [85.31387244352206, 23.341889206116086], [85.3140172985914, 23.341971980441418], [85.31399289827664, 23.342078528389017]]]}}, {"type": "Feature", "properties": {"class": "parcel", "raw_confidence": 0.289, "source_tile_id": "tile_0004"}, "geometry": {"type": "Polygon", "coordinates": [[[85.32198748167308, 23.343306054066375], [85.32498162229808, 23.343399804066376], [85.32513849713064, 23.34337304316008], [85.32529984093064, 23.34325796767848], [85.32539414062501, 23.343], [85.32539414062501, 23.340005859375], [85.32536369243802, 23.339852786002055], [85.32527698333749, 23.339723016662525], [85.32514721399795, 23.339636307561996], [85.32499414062501, 23.339605859375002], [85.322, 23.339605859375002], [85.32184692662706, 23.339636307561996], [85.32171715728752, 23.339723016662525], [85.321630448187, 23.339852786002055], [85.3216, 23.340005859375], [85.32160185017044, 23.34294467802646], [85.32174083821121, 23.343210938639814], [85.32198748167308, 23.343306054066375]]]}}, {"type": "Feature", "properties": {"class": "parcel", "raw_confidence": 0.3214, "source_tile_id": "tile_0006"}, "geometry": {"type": "Polygon", "coordinates": [[[85.3097692013232, 23.345552654969715], [85.3100263123167, 23.346148252857137], [85.3102708600122, 23.34631434962749], [85.31298258988838, 23.346399833190823], [85.31324284150422, 23.346313285608797], [85.31334519299381, 23.34619173480216], [85.31339414062501, 23.346], [85.31339414062501, 23.343005859375], [85.31330334480636, 23.342752102061336], [85.31318269931974, 23.342653090869263], [85.31299414062501, 23.342605859375002], [85.31, 23.342605859375002], [85.30974624268633, 23.342696655193656], [85.30964723149427, 23.34281730068027], [85.30960192610934, 23.342966652518868], [85.3096, 23.3452265625], [85.30964895847387, 23.34541831715297], [85.3097692013232, 23.345552654969715]]]}}, {"type": "Feature", "properties": {"class": "parcel", "raw_confidence": 0.3445, "source_tile_id": "tile_0005"}, "geometry": {"type": "Polygon", "coordinates": [[[85.32498748167308, 23.343306054066375], [85.32798162229808, 23.343399804066376], [85.32813849713064, 23.34337304316008], [85.32829984093064, 23.34325796767848], [85.32839414062501, 23.343], [85.32839414062501, 23.340005859375], [85.32836369243802, 23.339852786002055], [85.32827698333749, 23.339723016662525], [85.32814721399795, 23.339636307561996], [85.32799414062501, 23.339605859375002], [85.325, 23.339605859375002], [85.32484692662706, 23.339636307561996], [85.32471715728752, 23.339723016662525], [85.324630448187, 23.339852786002055], [85.3246, 23.340005859375], [85.32460185017044, 23.34294467802646], [85.32474083821121, 23.343210938639814], [85.32498748167308, 23.343306054066375]]]}}, {"type": "Feature", "properties": {"class": "parcel", "raw_confidence": 0.2742, "source_tile_id": "tile_0000"}, "geometry": {"type": "Polygon", "coordinates": [[[85.3098390905202, 23.34319628590661], [85.31038671875, 23.3434], [85.31299414062501, 23.3434], [85.31314721399795, 23.343369551813005], [85.31327698333749, 23.343282842712476], [85.31336369243802, 23.343153073372946], [85.31339414062501, 23.343], [85.31339414062501, 23.340005859375], [85.31336369243802, 23.339852786002055], [85.31327698333749, 23.339723016662525], [85.31314721399795, 23.339636307561996], [85.31299414062501, 23.339605859375002], [85.31, 23.339605859375002], [85.30984692662706, 23.339636307561996], [85.30971715728752, 23.339723016662525], [85.309630448187, 23.339852786002055], [85.3096, 23.340005859375], [85.3096, 23.342830078125], [85.30966506434056, 23.34304875163515], [85.3098390905202, 23.34319628590661]]]}}, {"type": "Feature", "properties": {"class": "parcel", "raw_confidence": 0.3038, "source_tile_id": "tile_0009"}, "geometry": {"type": "Polygon", "coordinates": [[[85.31897733377563, 23.34627631041149], [85.32118504751693, 23.346399635228327], [85.32133846512109, 23.346361843871644], [85.32146527980574, 23.346267593228873], [85.32154570439988, 23.346131589432748], [85.32156719007922, 23.345975053451305], [85.32125340517037, 23.344770756382694], [85.32128455597828, 23.343880733299446], [85.32147161332784, 23.343764595833985], [85.32157463161536, 23.34362389290299], [85.32210097651628, 23.34357882804083], [85.322300018584, 23.343451116381118], [85.32238616206487, 23.343272852712378], [85.32239414062501, 23.343005859375], [85.32236369243802, 23.342852786002055], [85.32227698333749, 23.342723016662525], [85.32214721399795, 23.342636307561996], [85.32199414062501, 23.342605859375002], [85.319, 23.342605859375002], [85.31884692662706, 23.342636307561996], [85.31871715728752, 23.342723016662525], [85.318630448187, 23.342852786002055], [85.3186, 23.343005859375], [85.31860203604815, 23.34591726060605], [85.31872348304395, 23.34616598318056], [85.31897733377563, 23.34627631041149]]]}}, {"type": "Feature", "properties": {"class": "parcel", "raw_confidence": 0.3027, "source_tile_id": "tile_0003"}, "geometry": {"type": "Polygon", "coordinates": [[[85.31864723149427, 23.33981730068027], [85.3186075281194, 23.340633879364884], [85.31880993142184, 23.341123058732585], [85.31860162142138, 23.341493317601916], [85.31868352869391, 23.341943041849188], [85.318601732266, 23.3421542200691], [85.3186, 23.342794921875], [85.31875389165783, 23.343110248188395], [85.31923048117802, 23.34338230295126], [85.32079758973971, 23.343398017300128], [85.32101465853675, 23.343306643299954], [85.32116488339545, 23.34309373532366], [85.32152155401306, 23.343038084588997], [85.32184799475507, 23.343347924335166], [85.32224201284392, 23.343222870099698], [85.3223412344756, 23.342970705723634], [85.32239303564397, 23.34113044490798], [85.32191391356368, 23.340212280193654], [85.32129782699548, 23.340016710595414], [85.32120557029785, 23.339749598873784], [85.32097576535381, 23.33961340504259], [85.31980013600612, 23.339613692001702], [85.31959395401806, 23.33972514203404], [85.31948635643064, 23.33992979389731], [85.31931597809321, 23.33967327153008], [85.319, 23.339605859375002], [85.31864723149427, 23.33981730068027]]]}}, {"type": "Feature", "properties": {"class": "parcel", "raw_confidence": 0.2605, "source_tile_id": "tile_0010"}, "geometry": {"type": "Polygon", "coordinates": [[[85.32237628423768, 23.344207889763318], [85.32234894116296, 23.344532307742185], [85.32259889401912, 23.34506676168943], [85.32245409905818, 23.34520789593214], [85.32237207544252, 23.34542704189264], [85.32211305558471, 23.34533226807759], [85.3218838861291, 23.34534183324071], [85.32171715728752, 23.345441766662525], [85.32160768588784, 23.345646573246196], [85.32164723149427, 23.34597762119473], [85.32199422101023, 23.346332355208204], [85.322216796875, 23.3464], [85.32261408372682, 23.34634936478465], [85.32280859375, 23.3464], [85.32499414062501, 23.3464], [85.32518269931974, 23.34635276850574], [85.32532672846993, 23.346222228093207], [85.32539414062501, 23.346], [85.32539414062501, 23.343005859375], [85.32534690913074, 23.34281730068027], [85.32521636871822, 23.34267327153008], [85.32499414062501, 23.342605859375002], [85.322, 23.342605859375002], [85.32181144130527, 23.342653090869263], [85.32166741215508, 23.342783631281794], [85.32160192610934, 23.342966652518868], [85.32161718450439, 23.34400074965976], [85.32171690157875, 23.344167352397314], [85.32184642539187, 23.344254109421122], [85.32211529135037, 23.34426779030375], [85.32233134488804, 23.344108758845], [85.32237628423768, 23.344207889763318]]]}}, {"type": "Feature", "properties": {"class": "parcel", "raw_confidence": 0.2564, "source_tile_id": "tile_0013"}, "geometry": {"type": "Polygon", "coordinates": [[[85.31273667397974, 23.347362959795834], [85.31273587075331, 23.347515723800704], [85.31282385825985, 23.347699484031512], [85.31281630746305, 23.347864151428137], [85.31287048878461, 23.348008815439346], [85.31305781997482, 23.348188668130774], [85.31325986451283, 23.348245327242932], [85.31339892394118, 23.348398376517178], [85.31316131737915, 23.348499026035146], [85.31302460538467, 23.34862577073049], [85.31291867727427, 23.34888126450366], [85.3129605766906, 23.34910654463948], [85.31308652268345, 23.34925117128719], [85.3133247180358, 23.34938319167437], [85.31362514435614, 23.34939807389067], [85.31377449619474, 23.34935276850574], [85.31391852534493, 23.349222228093208], [85.31398401139067, 23.349039206856133], [85.31396839498147, 23.348730497063947], [85.31382285528346, 23.348525948483413], [85.31409133457352, 23.348441121676828], [85.31425749099616, 23.348161758346134], [85.31418479975574, 23.34755753505527], [85.31404293573952, 23.34740671879823], [85.31391565521244, 23.34711168853748], [85.31356075730564, 23.34692615137264], [85.31320272214114, 23.346912584374053], [85.31301668032755, 23.346962837089542], [85.3128236616532, 23.347122520785007], [85.31273667397974, 23.347362959795834]]]}}, {"type": "Feature", "properties": {"class": "parcel", "raw_confidence": 0.2564, "source_tile_id": "tile_0013"}, "geometry": {"type": "Polygon", "coordinates": [[[85.314458573187, 23.348419192252056], [85.31435377963783, 23.348646573246256], [85.31436331761572, 23.3488465826209], [85.31446325103752, 23.349013311462475], [85.31468234588385, 23.34917432856627], [85.31498734083091, 23.34918291828213], [85.31528493077306, 23.349008002504192], [85.31589094366693, 23.34936888065397], [85.31608185914982, 23.34937268519688], [85.31625278402161, 23.349287550689425], [85.31636476536275, 23.34913287885814], [85.31639414062501, 23.348982421875], [85.31639222134481, 23.348175706293272], [85.31624200202954, 23.347818517929237], [85.31639229575455, 23.347503216824105], [85.31638622948101, 23.347075136727224], [85.31630078392497, 23.34689745083827], [85.31617711559063, 23.3467986001475], [85.31596516442617, 23.34674328431204], [85.31567869457392, 23.346747630003293], [85.31547746125466, 23.346861623913743], [85.31530456367561, 23.346567003448712], [85.31509960257574, 23.346457311596886], [85.3148823100934, 23.34645780996468], [85.31465231681732, 23.346573097769173], [85.31451202496349, 23.346840286582715], [85.31454045060899, 23.34735124782276], [85.31435786753451, 23.347572239427826], [85.3142908543813, 23.347747134284347], [85.314458573187, 23.348419192252056]]]}}, {"type": "Feature", "properties": {"class": "parcel", "raw_confidence": 0.2567, "source_tile_id": "tile_0015"}, "geometry": {"type": "Polygon", "coordinates": [[[85.32129191593376, 23.348506961832012], [85.32164979494316, 23.348722559108726], [85.3220611266212, 23.348708804334347], [85.32227240677798, 23.34860179951546], [85.32237621086203, 23.348432869061337], [85.32239414062501, 23.346005859375], [85.32236369243802, 23.345852786002055], [85.32227698333749, 23.345723016662525], [85.32214721399795, 23.345636307561996], [85.32199414062501, 23.345605859375002], [85.319, 23.345605859375002], [85.31884692662706, 23.345636307561996], [85.31871715728752, 23.345723016662525], [85.318630448187, 23.345852786002055], [85.3186, 23.346005859375], [85.31860178301825, 23.348170538292884], [85.31864378561512, 23.348314777639533], [85.31878114566425, 23.34850132750268], [85.31864723149427, 23.348647378805268], [85.3186, 23.348876953125], [85.318630448187, 23.349030026497946], [85.31871715728752, 23.349159795837476], [85.31889600851095, 23.349333286445574], [85.31907818970805, 23.349398094426267], [85.32023395556044, 23.349398129016627], [85.32041470651733, 23.34933446414631], [85.32054094638765, 23.34920073440567], [85.32073691876866, 23.349370890773127], [85.32105264550381, 23.349392314112162], [85.32125745208748, 23.349282842712476], [85.32136692348716, 23.349078036128805], [85.3213760447526, 23.3488278524353], [85.32123412091153, 23.348604250119454], [85.32129191593376, 23.348506961832012]]]}}]}